NORAD_CAT_ID,OBJECT_NAME,OBJECT_TYPE,EPOCH,MEAN_MOTION,ECCENTRICITY,INCLINATION,RA_OF_ASC_NODE,ARG_OF_PERICENTER,MEAN_ANOMALY,BSTAR,MEAN_MOTION_DOT,MEAN_MOTION_DDOT,TLE_LINE0,TLE_LINE1,TLE_LINE2,SEMIMAJOR_AXIS,PERIOD,APOGEE,PERIGEE,DECAYED
51117.0,STARLINK-3391,PAYLOAD,2023-01-28 04:26:26,15.08836508,0.000103,53.2159,351.0945,85.139,274.9719,0.0004224,6.440000000000001e-05,0.0,0 STARLINK-3391,1 51117U 22005P   23028.18502391  .00006440  00000-0  42240-3 0  9997,2 51117  53.2159 351.0945 0001030  85.1390 274.9719 15.08836508 58410,6917.891,95.438,540.469,539.044,0.0
51117.0,STARLINK-3391,PAYLOAD,2023-01-28 06:01:49,15.08838978,0.0001151,53.2164,350.7964,88.0305,272.0819,0.0005194,7.988e-05,0.0,0 STARLINK-3391,1 51117U 22005P   23028.25126371  .00007988  00000-0  51940-3 0  9990,2 51117  53.2164 350.7964 0001151  88.0305 272.0819 15.08838978 57316,6917.884,95.438,540.545,538.952,0.0
51117.0,STARLINK-3391,PAYLOAD,2023-01-28 21:55:40,15.08841274,0.000115,53.2167,347.8247,86.3255,273.7868,0.00020036,2.902e-05,0.0,0 STARLINK-3391,1 51117U 22005P   23028.91366554  .00002902  00000-0  20036-3 0  9995,2 51117  53.2167 347.8247 0001150  86.3255 273.7868 15.08841274 57410,6917.876,95.437,540.537,538.946,0.0
51117.0,STARLINK-3391,PAYLOAD,2023-01-29 05:52:36,15.08848099,0.0001126,53.2165,346.3371,80.8562,279.2558,0.00026313,3.903e-05,0.0,0 STARLINK-3391,1 51117U 22005P   23029.24486211  .00003903  00000-0  26313-3 0  9991,2 51117  53.2165 346.3371 0001126  80.8562 279.2558 15.08848099 58570,6917.856,95.437,540.5,538.942,0.0
51117.0,STARLINK-3391,PAYLOAD,2023-01-30 05:43:23,15.08846817,0.0001275,53.2166,341.8762,76.8783,283.2351,0.00011792,1.59e-05,0.0,0 STARLINK-3391,1 51117U 22005P   23030.23846189  .00001590  00000-0  11792-3 0  9991,2 51117  53.2166 341.8762 0001275  76.8783 283.2351 15.08846817 58729,6917.86,95.437,540.607,538.843,0.0
51117.0,STARLINK-3391,PAYLOAD,2023-01-30 21:37:14,15.08839198,0.0001431,53.2174,338.9014,76.7977,283.3175,-7.9145e-06,-4.14e-06,0.0,0 STARLINK-3391,1 51117U 22005P   23030.90086656 -.00000414  00000-0 -79145-5 0  9994,2 51117  53.2174 338.9014 0001431  76.7977 283.3175 15.08839198 57710,6917.883,95.438,540.738,538.758,0.0
51117.0,STARLINK-3391,PAYLOAD,2023-01-31 00:48:01,15.08840272,0.0001302,53.2168,338.3064,74.8731,285.2405,2.1013e-06,-2.54e-06,0.0,0 STARLINK-3391,1 51117U 22005P   23031.03334573 -.00000254  00000-0  21013-5 0  9995,2 51117  53.2168 338.3064 0001302  74.8731 285.2405 15.08840272 58843,6917.88,95.438,540.645,538.844,0.0
51117.0,STARLINK-3391,PAYLOAD,2023-01-31 02:23:24,15.08843038,0.0001174,53.2157,338.0105,83.051,277.0616,4.2825e-05,3.94e-06,0.0,0 STARLINK-3391,1 51117U 22005P   23031.09958369  .00000394  00000-0  42825-4 0  9993,2 51117  53.2157 338.0105 0001174  83.0510 277.0616 15.08843038 57742,6917.871,95.437,540.548,538.924,0.0
51117.0,STARLINK-3391,PAYLOAD,2023-01-31 19:52:38,15.08848149,0.0001215,53.2154,334.7394,89.2176,270.8956,0.00010857,1.441e-05,0.0,0 STARLINK-3391,1 51117U 22005P   23031.82822129  .00001441  00000-0  10857-3 0  9991,2 51117  53.2154 334.7394 0001215  89.2176 270.8956 15.08848149 57852,6917.855,95.437,540.561,538.88,0.0
51117.0,STARLINK-3391,PAYLOAD,2023-02-01 02:14:10,15.08855417,0.0001206,53.2157,333.5496,93.2169,266.8961,0.00023078,3.388e-05,0.0,0 STARLINK-3391,1 51117U 22005P   23032.09317689  .00003388  00000-0  23078-3 0  9992,2 51117  53.2157 333.5496 0001206  93.2169 266.8961 15.08855417 59008,6917.833,95.437,540.533,538.864,0.0
51117.0,STARLINK-3391,PAYLOAD,2023-02-01 05:24:56,15.08861557,0.0001266,53.2152,332.955,89.0088,271.1049,0.00043845,6.701e-05,0.0,0 STARLINK-3391,1 51117U 22005P   23032.22565482  .00006701  00000-0  43845-3 0  9999,2 51117  53.2152 332.9550 0001266  89.0088 271.1049 15.08861557 57912,6917.814,95.436,540.555,538.804,0.0
51117.0,STARLINK-3391,PAYLOAD,2023-02-01 18:08:02,15.08833152,0.0001297,53.215,330.5763,85.5298,274.5843,-0.00012052,-2.205e-05,0.0,0 STARLINK-3391,1 51117U 22005P   23032.75558533 -.00002205  00000-0 -12052-3 0  9999,2 51117  53.2150 330.5763 0001297  85.5298 274.5843 15.08833152 59100,6917.901,95.438,540.664,538.869,0.0
51117.0,STARLINK-3391,PAYLOAD,2023-02-02 02:04:58,15.08833829,0.0001222,53.2158,329.0898,81.948,278.1651,-3.5412e-05,-8.51e-06,0.0,0 STARLINK-3391,1 51117U 22005P   23033.08678897 -.00000851  00000-0 -35412-4 0  9993,2 51117  53.2158 329.0898 0001222  81.9480 278.1651 15.08833829 58041,6917.899,95.438,540.61,538.919,0.0
51117.0,STARLINK-3391,PAYLOAD,2023-02-02 21:09:35,15.08849086,0.0001326,53.2156,325.522,75.2875,284.8264,0.0003012,4.51e-05,0.0,0 STARLINK-3391,1 51117U 22005P   23033.88166314  .00004510  00000-0  30120-3 0  9991,2 51117  53.2156 325.5220 0001326  75.2875 284.8264 15.08849086 59270,6917.853,95.437,540.635,538.8,0.0
51117.0,STARLINK-3391,PAYLOAD,2023-02-03 01:55:44,15.08856434,0.00013,53.2157,324.6296,75.1935,284.9201,0.00054168,8.347e-05,0.0,0 STARLINK-3391,1 51117U 22005P   23034.08038095  .00008347  00000-0  54168-3 0  9998,2 51117  53.2157 324.6296 0001300  75.1935 284.9201 15.08856434 58199,6917.83,95.437,540.594,538.796,0.0
51117.0,STARLINK-3391,PAYLOAD,2023-02-03 19:24:59,15.08838878,0.0001496,53.215,321.3603,64.9792,295.1355,0.0001332,1.832e-05,0.0,0 STARLINK-3391,1 51117U 22005P   23034.80902590  .00001832  00000-0  13320-3 0  9995,2 51117  53.2150 321.3603 0001496  64.9792 295.1355 15.08838878 59413,6917.884,95.438,540.784,538.714,0.0
51117.0,STARLINK-3391,PAYLOAD,2023-02-04 04:57:17,15.08856439,0.0001325,53.2156,319.5739,89.4486,270.6658,0.00073565,0.00011445,0.0,0 STARLINK-3391,1 51117U 22005P   23035.20645812  .00011445  00000-0  73565-3 0  9999,2 51117  53.2156 319.5739 0001325  89.4486 270.6658 15.08856439 59474,6917.83,95.437,540.612,538.779,0.0
51117.0,STARLINK-3391,PAYLOAD,2023-02-04 19:15:46,15.08843996,0.0001939,53.2156,316.8969,98.0433,262.0779,0.00051014,7.841e-05,0.0,0 STARLINK-3391,1 51117U 22005P   23035.80262382  .00007841  00000-0  51014-3 0  9992,2 51117  53.2156 316.8969 0001939  98.0433 262.0779 15.08843996 59561,6917.868,95.437,541.075,538.392,0.0
51117.0,STARLINK-3391,PAYLOAD,2023-02-04 22:26:33,15.08840141,0.0001349,53.216,316.3037,81.4195,278.695,0.00052842,8.132e-05,0.0,0 STARLINK-3391,1 51117U 22005P   23035.93510519  .00008132  00000-0  52842-3 0  9998,2 51117  53.2160 316.3037 0001349  81.4195 278.6950 15.08840141 58475,6917.88,95.438,540.678,538.812,0.0
51117.0,STARLINK-3391,PAYLOAD,2023-02-05 04:48:05,15.088471,0.0001387,53.216,315.1136,81.8105,278.3044,0.00067775,0.00010517,0.0,0 STARLINK-3391,1 51117U 22005P   23036.20006443  .00010517  00000-0  67775-3 0  9996,2 51117  53.2160 315.1136 0001387  81.8105 278.3044 15.08847100 58517,6917.859,95.437,540.683,538.764,0.0
51117.0,STARLINK-3391,PAYLOAD,2023-02-05 19:06:34,15.08833854,0.0001039,53.2151,312.4369,75.3422,284.7686,0.00050585,7.771e-05,0.0,0 STARLINK-3391,1 51117U 22005P   23036.79623116  .00007771  00000-0  50585-3 0  9991,2 51117  53.2151 312.4369 0001039  75.3422 284.7686 15.08833854 59716,6917.899,95.438,540.483,539.045,0.0
51117.0,STARLINK-3391,PAYLOAD,2023-02-05 22:17:20,15.08835262,0.0001281,53.2149,311.8424,97.4464,262.6674,0.0007308,0.0001136,0.0,0 STARLINK-3391,1 51117U 22005P   23036.92871087  .00011360  00000-0  73080-3 0  9992,2 51117  53.2149 311.8424 0001281  97.4464 262.6674 15.08835262 58624,6917.895,95.438,540.646,538.874,0.0
51117.0,STARLINK-3391,PAYLOAD,2023-02-06 03:03:29,15.08847927,0.0001088,53.2147,310.9491,86.6985,273.4131,0.00087083,0.00013601,0.0,0 STARLINK-3391,1 51117U 22005P   23037.12742970  .00013601  00000-0  87083-3 0  9991,2 51117  53.2147 310.9491 0001088  86.6985 273.4131 15.08847927 59764,6917.856,95.437,540.474,538.968,0.0
51117.0,STARLINK-3391,PAYLOAD,2023-02-07 02:54:16,15.08865243,0.0001141,53.2149,306.4901,84.2703,275.8419,0.0010733,0.00016847,0.0,0 STARLINK-3391,1 51117U 22005P   23038.12102420  .00016847  00000-0  10733-2 0  9994,2 51117  53.2149 306.4901 0001141  84.2703 275.8419 15.08865243 59917,6917.803,95.436,540.458,538.879,0.0
51117.0,STARLINK-3391,PAYLOAD,2023-02-07 04:29:39,15.08872529,0.0001099,53.2146,306.1926,84.1795,275.9322,0.0012684,0.00019974,0.0,0 STARLINK-3391,1 51117U 22005P   23038.18726228  .00019974  00000-0  12684-2 0  9999,2 51117  53.2146 306.1926 0001099  84.1795 275.9322 15.08872529 58817,6917.781,95.435,540.406,538.886,0.0
51117.0,STARLINK-3391,PAYLOAD,2023-02-07 21:58:54,15.08849954,9.48e-05,53.2148,302.9219,74.9107,285.199,0.00047932,7.351e-05,0.0,0 STARLINK-3391,1 51117U 22005P   23038.91590482  .00007351  00000-0  47932-3 0  9992,2 51117  53.2148 302.9219 0000948  74.9107 285.1990 15.08849954 58926,6917.85,95.437,540.371,539.059,0.0
51117.0,STARLINK-3391,PAYLOAD,2023-02-08 01:09:40,15.08860359,0.0001232,53.2151,302.3223,94.8269,265.2864,0.0006955,0.00010804,0.0,0 STARLINK-3391,1 51117U 22005P   23039.04838211  .00010804  00000-0  69550-3 0  9999,2 51117  53.2151 302.3223 0001232  94.8269 265.2864 15.08860359 60054,6917.818,95.436,540.535,538.831,0.0
51117.0,STARLINK-3391,PAYLOAD,2023-02-08 05:55:49,15.08875324,0.000119,53.2148,301.4294,118.3435,241.7678,0.001489,0.00023512,0.0,0 STARLINK-3391,1 51117U 22005P   23039.24709706  .00023512  00000-0  14890-2 0  9993,2 51117  53.2148 301.4294 0001190 118.3435 241.7678 15.08875324 60081,6917.772,95.435,540.461,538.814,0.0
51117.0,STARLINK-3391,PAYLOAD,2023-02-08 21:49:41,15.08834532,0.000134,53.2138,298.4615,79.4173,280.697,0.0010981,0.00017229,0.0,0 STARLINK-3391,1 51117U 22005P   23039.90951060  .00017229  00000-0  10981-2 0  9993,2 51117  53.2138 298.4615 0001340  79.4173 280.6970 15.08834532 59075,6917.897,95.438,540.689,538.835,0.0
51117.0,STARLINK-3391,PAYLOAD,2023-02-09 02:35:51,15.08857544,0.0001267,53.2139,297.5695,72.389,287.7241,0.0030097,0.00047961,0.0,0 STARLINK-3391,1 51117U 22005P   23040.10823106  .00047961  00000-0  30097-2 0  9992,2 51117  53.2139 297.5695 0001267  72.3890 287.7241 15.08857544 60215,6917.827,95.436,540.568,538.815,0.0
